#aV2013 10 28  0  0  0.00000000     288 DD+AD WGS84 FIT  NGA
## 1764  86400.00000000   300.00000000 56593 0.0000000000000
+   31     1  2  3  4  5  6  7  8  9 10 11 12 13 14 15 16 17
+         18 19 20 21 22 23 24 25 26 27 28 29 31 32  0  0  0
+          0  0  0  0  0  0  0  0  0  0  0  0  0  0  0  0  0
+          0  0  0  0  0  0  0  0  0  0  0  0  0  0  0  0  0
+          0  0  0  0  0  0  0  0  0  0  0  0  0  0  0  0  0
++         2  2  2  2  2  2  2  2  2  2  2  2  2  2  2  2  2
++         2  2  2  2  2  2  2  2  2  2  2  2  2  2  2  0  0
++         0  0  0  0  0  0  0  0  0  0  0  0  0  0  0  0  0
++         0  0  0  0  0  0  0  0  0  0  0  0  0  0  0  0  0
++         0  0  0  0  0  0  0  0  0  0  0  0  0  0  0  0  0
%c cc cc ccc ccc cccc cccc cccc cccc ccccc ccccc ccccc ccccc
%c cc cc ccc ccc cccc cccc cccc cccc ccccc ccccc ccccc ccccc
%f  0.0000000  0.000000000  0.00000000000  0.000000000000000
%f  0.0000000  0.000000000  0.00000000000  0.000000000000000
%i    0    0    0    0      0      0      0      0         0
%i    0    0    0    0      0      0      0      0         0
/*      NGA, ST. LOUIS,MO.                                  
/*   EPHEMERIS COMPUTED FROM  1 DAYS OF DATA
/*   EPOCHA SMOOTHER  
/* CCCCCCCCCCCCCCCCCCCCCCCCCCCCCCCCCCCCCCCCCCCCCCCCCCCCCCCCC
*  2013 10 28  4 45  0.00000000                                                 
P  1 -21518.690003 -11235.508419  10873.032859     89.036816                    
V  1  -7917.893260 -11574.663026 -27438.801397      0.034983                    
P  2  11702.280717  21947.990963  10234.412581    458.089483                    
V  2 -10804.636930  -6878.629365  27237.573051      0.021315                    
P  3 -10347.671615 -12773.205882 -21424.242252    278.418683                    
V  3  23825.832662 -10512.128086  -5196.410088      0.050066                    
P  4  -1197.188050  18363.328504  18756.869185      2.534927                    
V  4 -18636.884569 -16197.652301  14692.719854      0.003251                    
P  5   4066.463089  22296.557558 -13755.546957   -398.471243                    
V  5  -7150.440973  16180.320584  24325.044168      0.005113                    
P  6  -2652.723130 -15459.413902 -21353.032229    122.985873                    
V  6  26135.446856  -8058.972606   2963.614230      0.177697                    
P  7 -16842.756391   2281.461136 -20429.569737    274.353548                    
V  7 -17193.960755 -19461.297009  11649.648368      0.041745                    
P  8  -8896.429108  11656.479398 -21945.691874      9.455953                    
V  8 -17624.568510 -21992.308537  -5096.866819      0.003293                    
P  9  -7962.826141  13046.011179 -22240.122644    278.769328                    
V  9 -19036.541735 -19036.608570  -4590.214143      0.027670                    
P 10  -8721.395523  24748.969654   1813.373672    -99.498749                    
V 10  -2827.071528  -3668.064627  31525.730981     -0.013128                    
P 11 -23497.594486 -12651.392610    -77.426139   -432.698597                    
V 11   1891.341173  -4463.393672 -29942.112880     -0.033907                    
P 12  12998.518337   7171.936183  21991.708161    164.665897                    
V 12  -8604.488863  26589.160175  -3378.780615      0.022323                    
P 13 -26041.138333   5267.432962  -2067.180025     65.685234                    
V 13  -2729.238596  -1698.538028  31932.859064     -0.038139                    
P 14  14422.718419 -14451.830357  17122.550585    212.216576                    
V 14  21296.374730  -2229.848821 -20218.332171     -0.010152                    
P 15  20989.393371   5685.254120 -15461.514323   -144.183936                    
V 15 -18126.533051   7610.615967 -21581.867581     -0.019247                    
P 16  -2512.133050 -22079.648705 -14316.438458   -243.381977                    
V 16   7493.174678 -16691.733099  24804.748513      0.009750                    
P 17 -14945.012239  14730.171200  16364.787814    -35.268952                    
V 17 -20374.859526   2449.191401 -21340.729349     -0.037235                    
P 18  15753.375509 -14473.612099 -15101.366970    281.758109                    
V 18  -2433.497866  20249.311603 -21689.947628      0.020748                    
P 19 -18606.601229  -9015.219436 -17028.612289   -414.500410                    
V 19  20730.807014  -4751.483182 -19859.338435     -0.026511                    
P 20 -15754.035505  -1975.984710  21107.067476    132.570888                    
V 20   5620.367266 -26781.404828   1750.553075      0.027897                    
P 21  15647.929194  -5532.817880 -20234.754688   -325.698114                    
V 21  18365.332124  19879.714085   8027.365474     -0.018588                    
P 22  10850.267088 -23473.908796  -5507.075720    192.000851                    
V 22   1863.942196   8108.465135 -29958.310307      0.020721                    
P 23 -25238.111744   -405.875573   8990.089645     35.324262                    
V 23  10282.564432  -5006.122356  28541.349969     -0.033832                    
P 24  21262.316021  14308.341911   7085.290280    -16.318085                    
V 24   4425.411181   8280.354371 -29927.398293     -0.007475                    
P 25  15968.698564  -7852.346707  19627.588831    161.554697                    
V 25  -5551.979918  24442.474932  14351.621911      0.034626                    
P 26   8145.200118  13707.816694 -21935.081796    260.756722                    
V 26 -25880.863815   4327.513834  -6808.387977      0.191789                    
P 27  -6197.551828 -14041.763666 -21687.741617    -52.434658                    
V 27  26567.113420  -7150.604443  -2948.187358     -0.038914                    
P 28 -12942.982417  21490.816703  -7855.810756    304.122193                    
V 28   1478.237658 -10933.232391 -30255.269209      0.030900                    
P 29  26182.660360  -3675.572342   2342.144478    482.446402                    
V 29  -2344.580217   3167.060845  31735.179715      0.030366                    
P 31   -560.750345 -18994.102504  18603.527565    328.690630                    
V 31  16805.971114  16230.913232  17517.417298      0.006416                    
P 32 -10219.578276 -14123.523050  20273.340195   -536.007445                    
V 32   9731.421896 -23509.419572 -10991.763935      0.040114                    
EOF
